"{\n    \"CCSDS_OMM_VERS\": \"2.0\",\n    \"COMMENT\": \"GENERATED VIA SPACE-TRACK.ORG API\",\n    \"CREATION_DATE\": \"2025-08-31T17:37:22\",\n    \"ORIGINATOR\": \"18 SPCS\",\n    \"OBJECT_NAME\": \"NAVSTAR 49 (USA 154)\",\n    \"OBJECT_ID\": \"2000-071A\",\n    \"CENTER_NAME\": \"EARTH\",\n    \"REF_FRAME\": \"TEME\",\n    \"TIME_SYSTEM\": \"UTC\",\n    \"MEAN_ELEMENT_THEORY\": \"SGP4\",\n    \"EPOCH\": \"2025-08-31T11:33:37.581408\",\n    \"MEAN_MOTION\": \"2.0055373218\",\n    \"ECCENTRICITY\": \"0.016529976\",\n    \"INCLINATION\": \"55.460039\",\n    \"RA_OF_ASC_NODE\": \"106.40344\",\n    \"ARG_OF_PERICENTER\": \"263.56012\",\n    \"MEAN_ANOMALY\": \"279.22842\",\n    \"EPHEMERIS_TYPE\": \"0\",\n    \"CLASSIFICATION_TYPE\": \"U\",\n    \"NORAD_CAT_ID\": \"26605\",\n    \"ELEMENT_SET_NO\": \"999\",\n    \"REV_AT_EPOCH\": \"18170\",\n    \"BSTAR\": \"0\",\n    \"MEAN_MOTION_DOT\": \"-0.000000118082\",\n    \"MEAN_MOTION_DDOT\": \"0\",\n    \"TLE_LINE0\": \"0 NAVSTAR 49 (USA 154)\",\n    \"TLE_LINE1\": \"1 26605U 00071A   25243.48168497 -.00000012  00000-0  00000-0 0  9994\",\n    \"TLE_LINE2\": \"2 26605  55.4600 106.4034 0165300 263.5601 279.2284  2.00553732181705\",\n    \"SEMIMAJOR_AXIS\": \"26561.219\",\n    \"PERIOD\": \"718.012\",\n    \"APOAPSIS\": \"20622.141\",\n    \"PERIAPSIS\": \"19744.028\",\n    \"OBJECT_TYPE\": \"PAYLOAD\",\n    \"DECAYED\": \"0\"\n}"